NORAD_CAT_ID,OBJECT_NAME,OBJECT_TYPE,EPOCH,MEAN_MOTION,ECCENTRICITY,INCLINATION,RA_OF_ASC_NODE,ARG_OF_PERICENTER,MEAN_ANOMALY,BSTAR,MEAN_MOTION_DOT,MEAN_MOTION_DDOT,TLE_LINE0,TLE_LINE1,TLE_LINE2,SEMIMAJOR_AXIS,PERIOD,APOGEE,PERIGEE,DECAYED
51151.0,STARLINK-3361,PAYLOAD,2022-11-01 13:13:45,15.08839529,0.0002121999999999,53.2156,44.4776,46.7587,313.3582,7.2351e-05,8.63e-06,0.0,0 STARLINK-3361,1 51151U 22005AZ  22305.55122022  .00000863  00000-0  72351-4 0  9992,2 51151  53.2156  44.4776 0002122  46.7587 313.3582 15.08839529 44905,6917.882,95.438,541.215,538.279,0.0
51151.0,STARLINK-3361,PAYLOAD,2022-11-01 16:24:31,15.0883983,0.0001927,53.2171,43.88399999999999,40.2419,319.8715,3.3383e-05,2.43e-06,0.0,0 STARLINK-3361,1 51151U 22005AZ  22305.68370108  .00000243  00000-0  33383-4 0  9990,2 51151  53.2171  43.8840 0001927  40.2419 319.8715 15.08839830 43815,6917.880999999999,95.438,541.0790000000002,538.413,0.0
51151.0,STARLINK-3361,PAYLOAD,2022-11-02 09:53:46,15.08838243,0.0002193,53.2165,40.6123,44.5734,315.5434,-2.6068e-05,-7.03e-06,0.0,0 STARLINK-3361,1 51151U 22005AZ  22306.41234535 -.00000703  00000-0 -26068-4 0  9990,2 51151  53.2165  40.6123 0002193  44.5734 315.5434 15.08838243 45034,6917.886,95.438,541.268,538.234,0.0
51151.0,STARLINK-3361,PAYLOAD,2022-11-02 14:39:56,15.08830106,0.0002044,53.2201,39.7218,29.4836,330.6271,2.0312e-05,3.5e-07,0.0,0 STARLINK-3361,1 51151U 22005AZ  22306.61106949  .00000035  00000-0  20312-4 0  9991,2 51151  53.2201  39.7218 0002044  29.4836 330.6271 15.08830106 45069,6917.911,95.438,541.19,538.362,0.0
51151.0,STARLINK-3361,PAYLOAD,2022-11-03 11:19:57,15.08834421,0.0002264,53.218,35.8562,34.2978,325.816,7.0142e-05,8.28e-06,0.0,0 STARLINK-3361,1 51151U 22005AZ  22307.47219047  .00000828  00000-0  70142-4 0  9996,2 51151  53.2180  35.8562 0002264  34.2978 325.8160 15.08834421 44087,6917.897,95.438,541.3290000000002,538.196,0.0
51151.0,STARLINK-3361,PAYLOAD,2022-11-04 06:24:33,15.08853297,0.0001781,53.2191,32.2853,49.5086,310.6061,0.00020893,3.04e-05,0.0,0 STARLINK-3361,1 51151U 22005AZ  22308.26705170  .00003040  00000-0  20893-3 0  9997,2 51151  53.2191  32.2853 0001781  49.5086 310.6061 15.08853297 45316,6917.84,95.437,540.937,538.4730000000002,0.0
51151.0,STARLINK-3361,PAYLOAD,2022-11-04 09:35:19,15.08847262,0.0001856,53.2181,31.6913,39.0438,321.0688,0.00016609,2.357e-05,0.0,0 STARLINK-3361,1 51151U 22005AZ  22308.39953592  .00002357  00000-0  16609-3 0  9994,2 51151  53.2181  31.6913 0001856  39.0438 321.0688 15.08847262 44228,6917.858,95.437,541.007,538.439,0.0
51151.0,STARLINK-3361,PAYLOAD,2022-11-05 04:39:58,15.08836649,0.0002139,53.2189,28.1247,40.7085,319.4066,3.2022e-05,2.21e-06,0.0,0 STARLINK-3361,1 51151U 22005AZ  22309.19442971  .00000221  00000-0  32022-4 0  9993,2 51151  53.2189  28.1247 0002139  40.7085 319.4066 15.08836649 45453,6917.891,95.438,541.235,538.276,0.0
51151.0,STARLINK-3361,PAYLOAD,2022-11-05 12:36:55,15.08820327,0.0002145,53.2189,26.6377,42.3826,317.7331,-0.00010837,-2.012e-05,0.0,0 STARLINK-3361,1 51151U 22005AZ  22309.52564603 -.00002012  00000-0 -10837-3 0  9998,2 51151  53.2189  26.6377 0002145  42.3826 317.7331 15.08820327 45506,6917.941,95.439,541.289,538.322,0.0
51151.0,STARLINK-3361,PAYLOAD,2022-11-06 12:27:42,15.08855007,0.0002173,53.2187,22.1778,37.7158,322.3986,-0.0005096,-8.393e-05,0.0,0 STARLINK-3361,1 51151U 22005AZ  22310.51924523 -.00008393  00000-0 -50960-3 0  9999,2 51151  53.2187  22.1778 0002173  37.7158 322.3986 15.08855007 44541,6917.835,95.437,541.203,538.196,0.0
51151.0,STARLINK-3361,PAYLOAD,2022-11-07 04:21:34,15.08831318,0.0002123,53.2188,19.2036,32.9892,327.1232,0.00013542,1.867e-05,0.0,0 STARLINK-3361,1 51151U 22005AZ  22311.18164982  .00001867  00000-0  13542-3 0  9990,2 51151  53.2188  19.2036 0002123  32.9892 327.1232 15.08831318 45753,6917.906999999997,95.438,541.241,538.303,0.0
51151.0,STARLINK-3361,PAYLOAD,2022-11-07 12:18:30,15.08829623,0.0002477,53.2191,17.719,19.8106,340.2982,0.00023692,3.483e-05,0.0,0 STARLINK-3361,1 51151U 22005AZ  22311.51285116  .00003483  00000-0  23692-3 0  9993,2 51151  53.2191  17.7190 0002477  19.8106 340.2982 15.08829623 44691,6917.9119999999975,95.438,541.491,538.064,0.0
51151.0,STARLINK-3361,PAYLOAD,2022-11-08 04:12:20,15.08843472,0.0002165,53.2183,14.7437,34.806999999999995,325.3064,0.00031956,4.802e-05,0.0,0 STARLINK-3361,1 51151U 22005AZ  22312.17524262  .00004802  00000-0  31956-3 0  9992,2 51151  53.2183  14.7437 0002165  34.8070 325.3064 15.08843472 45902,6917.87,95.437,541.232,538.237,0.0
51151.0,STARLINK-3361,PAYLOAD,2022-11-08 10:33:54,15.08837778,0.0002187,53.2184,13.5539,34.301,325.8123,0.00027371,4.07e-05,0.0,0 STARLINK-3361,1 51151U 22005AZ  22312.44021019  .00004070  00000-0  27371-3 0  9997,2 51151  53.2184  13.5539 0002187  34.3010 325.8123 15.08837778 45943,6917.887,95.438,541.265,538.239,0.0
51151.0,STARLINK-3361,PAYLOAD,2022-11-09 10:24:41,15.08836143,0.0002232,53.2176,9.0945,31.0599,329.0525,-4.285300000000001e-05,-9.7e-06,0.0,0 STARLINK-3361,1 51151U 22005AZ  22313.43381749 -.00000970  00000-0 -42853-4 0  9996,2 51151  53.2176   9.0945 0002232  31.0599 329.0525 15.08836143 44982,6917.892,95.438,541.3009999999998,538.2130000000002,0.0
51151.0,STARLINK-3361,PAYLOAD,2022-11-10 02:18:32,15.08846794,0.0002284,53.2174,6.1206,31.5372,328.5757,0.00020223,2.932e-05,0.0,0 STARLINK-3361,1 51151U 22005AZ  22314.09621261  .00002932  00000-0  20223-3 0  9999,2 51151  53.2174   6.1206 0002284  31.5372 328.5757 15.08846794 46198,6917.86,95.437,541.305,538.145,0.0
51151.0,STARLINK-3361,PAYLOAD,2022-11-10 10:15:28,15.08844166,0.0002299,53.2175,4.6337,31.08,329.0328,0.00018948,2.729e-05,0.0,0 STARLINK-3361,1 51151U 22005AZ  22314.42741410  .00002729  00000-0  18948-3 0  9990,2 51151  53.2175   4.6337 0002299  31.0800 329.0328 15.08844166 45138,6917.868,95.437,541.323,538.1419999999998,0.0
51151.0,STARLINK-3361,PAYLOAD,2022-11-11 03:44:43,15.08836398,0.0002345,53.2171,1.3631,30.7815,329.3314,0.00018067,2.588e-05,0.0,0 STARLINK-3361,1 51151U 22005AZ  22315.15605825  .00002588  00000-0  18067-3 0  9995,2 51151  53.2171   1.3631 0002345  30.7815 329.3314 15.08836398 46350,6917.891,95.438,541.379,538.134,0.0
51151.0,STARLINK-3361,PAYLOAD,2022-11-11 11:41:39,15.08830285,0.000221,53.2185,359.8758,31.5658,328.5466,0.00012393,1.684e-05,0.0,0 STARLINK-3361,1 51151U 22005AZ  22315.48726238  .00001684  00000-0  12393-3 0  9995,2 51151  53.2185 359.8758 0002210  31.5658 328.5466 15.08830285 45291,6917.91,95.438,541.304,538.246,0.0
51151.0,STARLINK-3361,PAYLOAD,2022-11-11 19:38:34,15.08836595,0.0002313,53.2185,358.3894,30.0077,330.1047,8.6705e-05,1.092e-05,0.0,0 STARLINK-3361,1 51151U 22005AZ  22315.81846016  .00001092  00000-0  86705-4 0  9991,2 51151  53.2185 358.3894 0002313  30.0077 330.1047 15.08836595 45349,6917.891,95.438,541.356,538.156,0.0
51151.0,STARLINK-3361,PAYLOAD,2022-11-12 03:35:29,15.08846806,0.0002185,53.2182,356.9018,29.5574,330.5541,0.00015704,2.212e-05,0.0,0 STARLINK-3361,1 51151U 22005AZ  22316.14965054  .00002212  00000-0  15704-3 0  9997,2 51151  53.2182 356.9018 0002185  29.5574 330.5541 15.08846806 46508,6917.86,95.437,541.236,538.2130000000002,0.0
51151.0,STARLINK-3361,PAYLOAD,2022-11-12 11:32:24,15.08858709,0.0002341,53.2175,355.415,26.9386,333.1727,0.00035427,5.357e-05,0.0,0 STARLINK-3361,1 51151U 22005AZ  22316.48084471  .00005357  00000-0  35427-3 0  9996,2 51151  53.2175 355.4150 0002341  26.9386 333.1727 15.08858709 45449,6917.823,95.436,541.308,538.069,0.0
51151.0,STARLINK-3361,PAYLOAD,2022-11-12 19:29:20,15.0885354,0.0002318,53.2173,353.9281,30.3568,329.7558,0.00016141,2.282e-05,0.0,0 STARLINK-3361,1 51151U 22005AZ  22316.81204428  .00002282  00000-0  16141-3 0  9995,2 51151  53.2173 353.9281 0002318  30.3568 329.7558 15.08853540 45496,6917.839,95.437,541.308,538.1,0.0
51151.0,STARLINK-3361,PAYLOAD,2022-11-13 01:50:52,15.08857117,0.0002281,53.2171,352.7388,30.2672,329.8452,0.00026584,3.947e-05,0.0,0 STARLINK-3361,1 51151U 22005AZ  22317.07700149  .00003947  00000-0  26584-3 0  9996,2 51151  53.2171 352.7388 0002281  30.2672 329.8452 15.08857117 46649,6917.828,95.436,541.271,538.115,0.0
51151.0,STARLINK-3361,PAYLOAD,2022-11-13 11:23:12,15.08841743,0.0002237,53.2175,350.9547,20.7552,339.3531,-2.939e-06,-3.35e-06,0.0,0 STARLINK-3361,1 51151U 22005AZ  22317.47444546 -.00000335  00000-0 -29390-5 0  9996,2 51151  53.2175 350.9547 0002237  20.7552 339.3531 15.08841743 46701,6917.875,95.437,541.288,538.193,0.0
51151.0,STARLINK-3361,PAYLOAD,2022-11-14 08:03:13,15.08838574,0.0002328,53.2183,347.0894,31.6779,328.4353,-8.0503e-05,-1.569e-05,0.0,0 STARLINK-3361,1 51151U 22005AZ  22318.33557681 -.00001569  00000-0 -80503-4 0  9999,2 51151  53.2183 347.0894 0002328  31.6779 328.4353 15.08838574 46838,6917.885,95.438,541.36,538.139,0.0
51151.0,STARLINK-3361,PAYLOAD,2022-11-14 11:13:59,15.08841569,0.0002357,53.2184,346.495,30.8136,329.2994,-4.6285e-05,-1.025e-05,0.0,0 STARLINK-3361,1 51151U 22005AZ  22318.46805422 -.00001025  00000-0 -46285-4 0  9998,2 51151  53.2184 346.4950 0002357  30.8136 329.2994 15.08841569 45742,6917.876,95.437,541.371,538.11,0.0
51151.0,STARLINK-3361,PAYLOAD,2022-11-14 19:10:55,15.08845104,0.0002272,53.2183,345.0073,32.8001,327.3132,-1.1718e-05,-4.75e-06,0.0,0 STARLINK-3361,1 51151U 22005AZ  22318.79924994 -.00000475  00000-0 -11718-4 0  9991,2 51151  53.2183 345.0073 0002272  32.8001 327.3132 15.08845104 46902,6917.865,95.437,541.302,538.158,0.0
51151.0,STARLINK-3361,PAYLOAD,2022-11-15 09:29:23,15.08845441,0.0002309,53.2174,342.3312,30.2615,329.851,1.5642e-05,-3.9e-07,0.0,0 STARLINK-3361,1 51151U 22005AZ  22319.39540656 -.00000039  00000-0  15642-4 0  9992,2 51151  53.2174 342.3312 0002309  30.2615 329.8510 15.08845441 45889,6917.864000000001,95.437,541.326,538.131,0.0
